start=new Date('2022-10-15T00:00:00.000Z').valueOf();
sats=[{"CLASSIFICATION_TYPE":"U","MEAN_ANOMALY":"276.9849","OBJECT_ID":"2020-012Q","SEMIMAJOR_AXIS":"6925.337","ELEMENT_SET_NO":"999","MEAN_MOTION_DDOT":"0.0000000000000","DECAY_DATE":null,"PERIOD":"95.592","OBJECT_NAME":"STARLINK-1237","REV_AT_EPOCH":"14757","TLE_LINE2":"2 45192  53.0557 224.2636 0001473  83.1308 276.9849 15.06403819147577","COUNTRY_CODE":"US","EPOCH":"2022-10-14T05:23:23.508096","EPHEMERIS_TYPE":"0","INCLINATION":"53.0557","ARG_OF_PERICENTER":"83.1308","FILE":"3611991","MEAN_MOTION_DOT":"0.00003477","NORAD_CAT_ID":"45192","MEAN_MOTION":"15.06403819","PERIAPSIS":"546.182","REF_FRAME":"TEME","MEAN_ELEMENT_THEORY":"SGP4","TLE_LINE1":"1 45192U 20012Q   22287.22457764  .00003477  00000-0  25215-3 0  9993","LAUNCH_DATE":"2020-02-17","RCS_SIZE":"LARGE","TIME_SYSTEM":"UTC","CENTER_NAME":"EARTH","BSTAR":"0.00025215000000","ECCENTRICITY":"0.00014730","SITE":"AFETR","OBJECT_TYPE":"PAYLOAD","APOAPSIS":"548.222","RA_OF_ASC_NODE":"224.2636","GP_ID":"215099609"},{"TLE_LINE1":"1 45193U 20012R   22287.54525404  .00019021  00000-0  12918-2 0  9993","LAUNCH_DATE":"2020-02-17","MEAN_ELEMENT_THEORY":"SGP4","REF_FRAME":"TEME","PERIAPSIS":"545.966","ECCENTRICITY":"0.00017280","APOAPSIS":"548.360","RA_OF_ASC_NODE":"222.8287","GP_ID":"215098359","SITE":"AFETR","OBJECT_TYPE":"PAYLOAD","CENTER_NAME":"EARTH","RCS_SIZE":"LARGE","TIME_SYSTEM":"UTC","BSTAR":"0.00129180000000","ELEMENT_SET_NO":"999","MEAN_MOTION_DDOT":"0.0000000000000","SEMIMAJOR_AXIS":"6925.298","DECAY_DATE":null,"PERIOD":"95.591","CLASSIFICATION_TYPE":"U","MEAN_ANOMALY":"285.8689","OBJECT_ID":"2020-012R","MEAN_MOTION_DOT":"0.00019021","INCLINATION":"53.0540","ARG_OF_PERICENTER":"74.2491","FILE":"3611991","MEAN_MOTION":"15.06416468","NORAD_CAT_ID":"45193","TLE_LINE2":"2 45193  53.0540 222.8287 0001728  74.2491 285.8689 15.06416468147567","OBJECT_NAME":"STARLINK-1239","REV_AT_EPOCH":"14756","COUNTRY_CODE":"US","EPHEMERIS_TYPE":"0","EPOCH":"2022-10-14T13:05:09.949056"},{"PERIAPSIS":"546.246","REF_FRAME":"TEME","MEAN_ELEMENT_THEORY":"SGP4","TLE_LINE1":"1 45194U 20012S   22287.54894065 -.00001126  00000-0 -56743-4 0  9991","LAUNCH_DATE":"2020-02-17","BSTAR":"-0.00005674300000","RCS_SIZE":"LARGE","TIME_SYSTEM":"UTC","CENTER_NAME":"EARTH","SITE":"AFETR","OBJECT_TYPE":"PAYLOAD","APOAPSIS":"548.288","GP_ID":"215098609","RA_OF_ASC_NODE":"222.8093","ECCENTRICITY":"0.00014740","OBJECT_ID":"2020-012S","MEAN_ANOMALY":"278.3850","CLASSIFICATION_TYPE":"U","DECAY_DATE":null,"PERIOD":"95.593","SEMIMAJOR_AXIS":"6925.402","MEAN_MOTION_DDOT":"0.0000000000000","ELEMENT_SET_NO":"999","COUNTRY_CODE":"US","EPOCH":"2022-10-14T13:10:28.472160","EPHEMERIS_TYPE":"0","OBJECT_NAME":"STARLINK-1240","REV_AT_EPOCH":"14751","TLE_LINE2":"2 45194  53.0534 222.8093 0001474  81.7307 278.3850 15.06382480147511","NORAD_CAT_ID":"45194","MEAN_MOTION":"15.06382480","INCLINATION":"53.0534","ARG_OF_PERICENTER":"81.7307","FILE":"3611991","MEAN_MOTION_DOT":"-0.00001126"},{"LAUNCH_DATE":"2020-02-17","TLE_LINE1":"1 45195U 20012T   22287.23003437  .00048964  00000-0  26128-2 0  9994","MEAN_ELEMENT_THEORY":"SGP4","REF_FRAME":"TEME","PERIAPSIS":"519.747","RA_OF_ASC_NODE":"218.1280","GP_ID":"215098859","APOAPSIS":"524.108","OBJECT_TYPE":"PAYLOAD","SITE":"AFETR","ECCENTRICITY":"0.00031600","BSTAR":"0.00261280000000","CENTER_NAME":"EARTH","TIME_SYSTEM":"UTC","RCS_SIZE":"LARGE","PERIOD":"95.069","DECAY_DATE":null,"ELEMENT_SET_NO":"999","MEAN_MOTION_DDOT":"0.0000000000000","SEMIMAJOR_AXIS":"6900.062","OBJECT_ID":"2020-012T","MEAN_ANOMALY":"259.3894","CLASSIFICATION_TYPE":"U","MEAN_MOTION":"15.14688207","NORAD_CAT_ID":"45195","MEAN_MOTION_DOT":"0.00048964","FILE":"3611991","ARG_OF_PERICENTER":"100.7455","INCLINATION":"53.0502","EPHEMERIS_TYPE":"0","EPOCH":"2022-10-14T05:31:14.969568","COUNTRY_CODE":"US","TLE_LINE2":"2 45195  53.0502 218.1280 0003160 100.7455 259.3894 15.14688207147650","OBJECT_NAME":"STARLINK-1241","REV_AT_EPOCH":"14765"},{"LAUNCH_DATE":"2020-02-17","TLE_LINE1":"1 45196U 20012U   22287.26512371  .00003134  00000-0  22915-3 0  9991","MEAN_ELEMENT_THEORY":"SGP4","REF_FRAME":"TEME","PERIAPSIS":"546.312","GP_ID":"215099109","RA_OF_ASC_NODE":"224.0864","APOAPSIS":"548.098","OBJECT_TYPE":"PAYLOAD","SITE":"AFETR","ECCENTRICITY":"0.00012900","BSTAR":"0.00022915000000","CENTER_NAME":"EARTH","TIME_SYSTEM":"UTC","RCS_SIZE":"LARGE","PERIOD":"95.592","DECAY_DATE":null,"MEAN_MOTION_DDOT":"0.0000000000000","ELEMENT_SET_NO":"999","SEMIMAJOR_AXIS":"6925.340","MEAN_ANOMALY":"292.4042","OBJECT_ID":"2020-012U","CLASSIFICATION_TYPE":"U","MEAN_MOTION":"15.06402831","NORAD_CAT_ID":"45196","MEAN_MOTION_DOT":"0.00003134","FILE":"3611991","INCLINATION":"53.0552","ARG_OF_PERICENTER":"67.7084","EPOCH":"2022-10-14T06:21:46.688544","EPHEMERIS_TYPE":"0","COUNTRY_CODE":"US","TLE_LINE2":"2 45196  53.0552 224.0864 0001290  67.7084 292.4042 15.06402831147620","OBJECT_NAME":"STARLINK-1244","REV_AT_EPOCH":"14762"},{"PERIAPSIS":"546.075","REF_FRAME":"TEME","MEAN_ELEMENT_THEORY":"SGP4","LAUNCH_DATE":"2020-02-17","TLE_LINE1":"1 45197U 20012V   22287.85118107  .00003431  00000-0  24901-3 0  9993","TIME_SYSTEM":"UTC","RCS_SIZE":"LARGE","CENTER_NAME":"EARTH","BSTAR":"0.00024901000000","ECCENTRICITY":"0.00015770","OBJECT_TYPE":"PAYLOAD","SITE":"AFETR","GP_ID":"215141304","RA_OF_ASC_NODE":"221.4525","APOAPSIS":"548.259","CLASSIFICATION_TYPE":"U","MEAN_ANOMALY":"289.9746","OBJECT_ID":"2020-012V","SEMIMAJOR_AXIS":"6925.302","ELEMENT_SET_NO":"999","MEAN_MOTION_DDOT":"0.0000000000000","PERIOD":"95.591","DECAY_DATE":null,"REV_AT_EPOCH":"14763","OBJECT_NAME":"STARLINK-1269","TLE_LINE2":"2 45197  53.0535 221.4525 0001577  70.1413 289.9746 15.06415195147639","EPOCH":"2022-10-14T20:25:42.044448","EPHEMERIS_TYPE":"0","COUNTRY_CODE":"US","FILE":"3612869","ARG_OF_PERICENTER":"70.1413","INCLINATION":"53.0535","MEAN_MOTION_DOT":"0.00003431","NORAD_CAT_ID":"45197","MEAN_MOTION":"15.06415195"},{"MEAN_MOTION_DDOT":"0.0000000000000","ELEMENT_SET_NO":"999","SEMIMAJOR_AXIS":"6925.340","PERIOD":"95.592","DECAY_DATE":null,"CLASSIFICATION_TYPE":"U","OBJECT_ID":"2020-012W","MEAN_ANOMALY":"264.8747","MEAN_MOTION_DOT":"-0.00000152","FILE":"3612869","INCLINATION":"53.0553","ARG_OF_PERICENTER":"95.2398","MEAN_MOTION":"15.06402773","NORAD_CAT_ID":"45198","TLE_LINE2":"2 45198  53.0553 201.1984 0001368  95.2398 264.8747 15.06402773147891","OBJECT_NAME":"STARLINK-1154","REV_AT_EPOCH":"14789","EPOCH":"2022-10-14T21:47:58.216416","EPHEMERIS_TYPE":"0","COUNTRY_CODE":"US","LAUNCH_DATE":"2020-02-17","TLE_LINE1":"1 45198U 20012W   22287.90831269 -.00000152  00000-0  86967-5 0  9991","MEAN_ELEMENT_THEORY":"SGP4","REF_FRAME":"TEME","PERIAPSIS":"546.258","ECCENTRICITY":"0.00013680","GP_ID":"215141054","RA_OF_ASC_NODE":"201.1984","APOAPSIS":"548.152","OBJECT_TYPE":"PAYLOAD","SITE":"AFETR","CENTER_NAME":"EARTH","TIME_SYSTEM":"UTC","RCS_SIZE":"LARGE","BSTAR":"0.00000869670000"},{"ECCENTRICITY":"0.00014230","SITE":"AFETR","OBJECT_TYPE":"PAYLOAD","APOAPSIS":"548.145","GP_ID":"215099360","RA_OF_ASC_NODE":"205.0537","RCS_SIZE":"LARGE","TIME_SYSTEM":"UTC","CENTER_NAME":"EARTH","BSTAR":"0.00107270000000","MEAN_ELEMENT_THEORY":"SGP4","TLE_LINE1":"1 45199U 20012X   22287.04949552  .00015740  00000-0  10727-2 0  9998","LAUNCH_DATE":"2020-02-17","PERIAPSIS":"546.174","REF_FRAME":"TEME","ARG_OF_PERICENTER":"104.9861","INCLINATION":"53.0548","FILE":"3611991","MEAN_MOTION_DOT":"0.00015740","NORAD_CAT_ID":"45199","MEAN_MOTION":"15.06417689","OBJECT_NAME":"STARLINK-1197","REV_AT_EPOCH":"14782","TLE_LINE2":"2 45199  53.0548 205.0537 0001423 104.9861 255.1286 15.06417689147824","COUNTRY_CODE":"US","EPHEMERIS_TYPE":"0","EPOCH":"2022-10-14T01:11:16.412928","SEMIMAJOR_AXIS":"6925.294","MEAN_MOTION_DDOT":"0.0000000000000","ELEMENT_SET_NO":"999","DECAY_DATE":null,"PERIOD":"95.591","CLASSIFICATION_TYPE":"U","MEAN_ANOMALY":"255.1286","OBJECT_ID":"2020-012X"},{"BSTAR":"0.00023872000000","TIME_SYSTEM":"UTC","RCS_SIZE":"LARGE","CENTER_NAME":"EARTH","OBJECT_TYPE":"PAYLOAD","SITE":"AFETR","GP_ID":"215140553","RA_OF_ASC_NODE":"201.4354","APOAPSIS":"548.020","ECCENTRICITY":"0.00011970","PERIAPSIS":"546.362","REF_FRAME":"TEME","MEAN_ELEMENT_THEORY":"SGP4","LAUNCH_DATE":"2020-02-17","TLE_LINE1":"1 45201U 20012Z   22287.85302067  .00003277  00000-0  23872-3 0  9993","EPHEMERIS_TYPE":"0","EPOCH":"2022-10-14T20:28:20.985888","COUNTRY_CODE":"US","OBJECT_NAME":"STARLINK-1199","REV_AT_EPOCH":"14794","TLE_LINE2":"2 45201  53.0549 201.4354 0001197  97.4149 262.6976 15.06407462147949","NORAD_CAT_ID":"45201","MEAN_MOTION":"15.06407462","FILE":"3612869","INCLINATION":"53.0549","ARG_OF_PERICENTER":"97.4149","MEAN_MOTION_DOT":"0.00003277","MEAN_ANOMALY":"262.6976","OBJECT_ID":"2020-012Z","CLASSIFICATION_TYPE":"U","PERIOD":"95.592","DECAY_DATE":null,"SEMIMAJOR_AXIS":"6925.326","ELEMENT_SET_NO":"999","MEAN_MOTION_DDOT":"0.0000000000000"},{"PERIAPSIS":"501.562","REF_FRAME":"TEME","MEAN_ELEMENT_THEORY":"SGP4","TLE_LINE1":"1 45202U 20012AA  22287.45331125  .00052220  00000-0  23508-2 0  9994","LAUNCH_DATE":"2020-02-17","BSTAR":"0.00235080000000","RCS_SIZE":"LARGE","TIME_SYSTEM":"UTC","CENTER_NAME":"EARTH","SITE":"AFETR","OBJECT_TYPE":"PAYLOAD","APOAPSIS":"506.550","GP_ID":"215098360","RA_OF_ASC_NODE":"198.6801","ECCENTRICITY":"0.00036240","OBJECT_ID":"2020-012AA","MEAN_ANOMALY":"218.4742","CLASSIFICATION_TYPE":"U","DECAY_DATE":null,"PERIOD":"94.700","SEMIMAJOR_AXIS":"6882.191","ELEMENT_SET_NO":"999","MEAN_MOTION_DDOT":"0.0000000000000","COUNTRY_CODE":"US","EPHEMERIS_TYPE":"0","EPOCH":"2022-10-14T10:52:46.092000","OBJECT_NAME":"STARLINK-1203","REV_AT_EPOCH":"14791","TLE_LINE2":"2 45202  52.9803 198.6801 0003624 141.6510 218.4742 15.20591920147912","NORAD_CAT_ID":"45202","MEAN_MOTION":"15.20591920","ARG_OF_PERICENTER":"141.6510","INCLINATION":"52.9803","FILE":"3611991","MEAN_MOTION_DOT":"0.00052220"}];
